[{"OBJECT_NAME":"KHALIFASAT","OBJECT_ID":"2018-084F","EPOCH":"2026-03-09T22:37:07.705056","MEAN_MOTION":15.0097364,"ECCENTRICITY":0.00062701,"INCLINATION":98.0864,"RA_OF_ASC_NODE":247.4233,"ARG_OF_PERICENTER":83.8573,"MEAN_ANOMALY":276.3364,"EPHEMERIS_TYPE":0,"CLASSIFICATION_TYPE":"U","NORAD_CAT_ID":43676,"ELEMENT_SET_NO":999,"REV_AT_EPOCH":40088,"BSTAR":0.00043724412,"MEAN_MOTION_DOT":5.516e-5,"MEAN_MOTION_DDOT":0},{"OBJECT_NAME":"STARLINK-5463","OBJECT_ID":"2023-021AX","EPOCH":"2026-03-09T16:02:50.039808","MEAN_MOTION":14.98331273,"ECCENTRICITY":0.00033444,"INCLINATION":70.0007,"RA_OF_ASC_NODE":164.4187,"ARG_OF_PERICENTER":270.3234,"MEAN_ANOMALY":89.7542,"EPHEMERIS_TYPE":0,"CLASSIFICATION_TYPE":"U","NORAD_CAT_ID":55673,"ELEMENT_SET_NO":999,"REV_AT_EPOCH":16928,"BSTAR":-6.0334792e-5,"MEAN_MOTION_DOT":-8.13e-6,"MEAN_MOTION_DDOT":0}]
